STARLINK-36472          
1 67346U 26003N   26039.16668981 -.02075978  00000+0 -55505-1 0  9992
2 67346  42.9994  34.2542 0001423 259.8861  95.2757 15.41000171  5925
STARLINK-36420          
1 67347U 26003P   26039.16668981 -.02063338  00000+0 -49239-1 0  9997
2 67347  43.0000  34.1909 0001440 267.5179 112.5495 15.44322977  5936
STARLINK-36467          
1 67348U 26003Q   26039.16668981 -.02002154  00000+0 -49020-1 0  9995
2 67348  43.0001  34.2085 0001339 261.3817 112.3380 15.43466769  5930
STARLINK-36457          
1 67349U 26003R   26039.16668981 -.02053901  00000+0 -44042-1 0  9991
2 67349  42.9997  34.1598 0001552 267.6829 125.9735 15.47384174  5937
STARLINK-36475          
1 67350U 26003S   26039.03078105  .00121171  00000+0  20392-2 0  9996
2 67350  42.9996  34.9370 0001098 271.0011  89.0723 15.50582572  4281
STARLINK-36478          
1 67351U 26003T   26039.03043556  .00105203  00000+0  17704-2 0  9990
2 67351  42.9983  34.9321 0000868 206.6138 153.4678 15.50653425  4283
STARLINK-36479          
1 67352U 26003U   26039.03009964  .00072087  00000+0  12205-2 0  9990
2 67352  42.9982  34.9293 0001377 200.0940 159.9866 15.50644034  4282
STARLINK-36474          
1 67353U 26003V   26039.16668981 -.02114355  00000+0 -62462-1 0  9993
2 67353  43.0008  34.2975 0001310 258.5910  78.0231 15.37480389  5932
STARLINK-36448          
1 67354U 26003W   26039.16668981 -.02069693  00000+0 -49744-1 0  9996
2 67354  42.9998  34.1558 0001432 272.4711 121.9486 15.44126532  5939
STARLINK-36477          
1 67355U 26003X   26039.16668981 -.02115680  00000+0 -60382-1 0  9996
2 67355  43.0004  34.2671 0001402 258.9221  90.1818 15.38530941  5920
STARLINK-36429          
1 67356U 26003Y   26039.16668981 -.02075885  00000+0 -58977-1 0  9996
2 67356  42.9993  34.2476 0001322 263.8306  93.3287 15.39182216  5923
STARLINK-36456          
1 67357U 26003Z   26038.38433974  .00131185  00000+0  22403-2 0  9990
2 67357  42.9974  38.6823 0003082 335.8136  24.2579 15.50124252  4186
