CCSDS_OMM_VERS = 2.0
CREATION_DATE  = 
ORIGINATOR     = 

OBJECT_NAME    = STARLINK-36472
OBJECT_ID      = 2026-003N
CENTER_NAME    = EARTH
REF_FRAME      = TEME
TIME_SYSTEM    = UTC
MEAN_ELEMENT_THEORY = SGP/SGP4

EPOCH          = 2026-02-08T04:00:01.999584
MEAN_MOTION    = 15.41000171
ECCENTRICITY   = .0001423
INCLINATION    = 42.9994
RA_OF_ASC_NODE = 34.2542
ARG_OF_PERICENTER = 259.8861
MEAN_ANOMALY   = 95.2757

EPHEMERIS_TYPE = 0
CLASSIFICATION_TYPE = U
NORAD_CAT_ID   = 67346
ELEMENT_SET_NO = 999
REV_AT_EPOCH   = 592
BSTAR          = -.55505E-1
MEAN_MOTION_DOT = -.2075978E-1
MEAN_MOTION_DDOT = 0

CCSDS_OMM_VERS = 2.0
CREATION_DATE  = 
ORIGINATOR     = 

OBJECT_NAME    = STARLINK-36420
OBJECT_ID      = 2026-003P
CENTER_NAME    = EARTH
REF_FRAME      = TEME
TIME_SYSTEM    = UTC
MEAN_ELEMENT_THEORY = SGP/SGP4

EPOCH          = 2026-02-08T04:00:01.999584
MEAN_MOTION    = 15.44322977
ECCENTRICITY   = .000144
INCLINATION    = 43.0000
RA_OF_ASC_NODE = 34.1909
ARG_OF_PERICENTER = 267.5179
MEAN_ANOMALY   = 112.5495

EPHEMERIS_TYPE = 0
CLASSIFICATION_TYPE = U
NORAD_CAT_ID   = 67347
ELEMENT_SET_NO = 999
REV_AT_EPOCH   = 593
BSTAR          = -.49239E-1
MEAN_MOTION_DOT = -.2063338E-1
MEAN_MOTION_DDOT = 0

CCSDS_OMM_VERS = 2.0
CREATION_DATE  = 
ORIGINATOR     = 

OBJECT_NAME    = STARLINK-36467
OBJECT_ID      = 2026-003Q
CENTER_NAME    = EARTH
REF_FRAME      = TEME
TIME_SYSTEM    = UTC
MEAN_ELEMENT_THEORY = SGP/SGP4

EPOCH          = 2026-02-08T04:00:01.999584
MEAN_MOTION    = 15.43466769
ECCENTRICITY   = .0001339
INCLINATION    = 43.0001
RA_OF_ASC_NODE = 34.2085
ARG_OF_PERICENTER = 261.3817
MEAN_ANOMALY   = 112.3380

EPHEMERIS_TYPE = 0
CLASSIFICATION_TYPE = U
NORAD_CAT_ID   = 67348
ELEMENT_SET_NO = 999
REV_AT_EPOCH   = 593
BSTAR          = -.4902E-1
MEAN_MOTION_DOT = -.2002154E-1
MEAN_MOTION_DDOT = 0

CCSDS_OMM_VERS = 2.0
CREATION_DATE  = 
ORIGINATOR     = 

OBJECT_NAME    = STARLINK-36457
OBJECT_ID      = 2026-003R
CENTER_NAME    = EARTH
REF_FRAME      = TEME
TIME_SYSTEM    = UTC
MEAN_ELEMENT_THEORY = SGP/SGP4

EPOCH          = 2026-02-08T04:00:01.999584
MEAN_MOTION    = 15.47384174
ECCENTRICITY   = .0001552
INCLINATION    = 42.9997
RA_OF_ASC_NODE = 34.1598
ARG_OF_PERICENTER = 267.6829
MEAN_ANOMALY   = 125.9735

EPHEMERIS_TYPE = 0
CLASSIFICATION_TYPE = U
NORAD_CAT_ID   = 67349
ELEMENT_SET_NO = 999
REV_AT_EPOCH   = 593
BSTAR          = -.44042E-1
MEAN_MOTION_DOT = -.2053901E-1
MEAN_MOTION_DDOT = 0

CCSDS_OMM_VERS = 2.0
CREATION_DATE  = 
ORIGINATOR     = 

OBJECT_NAME    = STARLINK-36475
OBJECT_ID      = 2026-003S
CENTER_NAME    = EARTH
REF_FRAME      = TEME
TIME_SYSTEM    = UTC
MEAN_ELEMENT_THEORY = SGP/SGP4

EPOCH          = 2026-02-08T00:44:19.482720
MEAN_MOTION    = 15.50582572
ECCENTRICITY   = .0001098
INCLINATION    = 42.9996
RA_OF_ASC_NODE = 34.9370
ARG_OF_PERICENTER = 271.0011
MEAN_ANOMALY   = 89.0723

EPHEMERIS_TYPE = 0
CLASSIFICATION_TYPE = U
NORAD_CAT_ID   = 67350
ELEMENT_SET_NO = 999
REV_AT_EPOCH   = 428
BSTAR          = .20392E-2
MEAN_MOTION_DOT = .121171E-2
MEAN_MOTION_DDOT = 0

CCSDS_OMM_VERS = 2.0
CREATION_DATE  = 
ORIGINATOR     = 

OBJECT_NAME    = STARLINK-36478
OBJECT_ID      = 2026-003T
CENTER_NAME    = EARTH
REF_FRAME      = TEME
TIME_SYSTEM    = UTC
MEAN_ELEMENT_THEORY = SGP/SGP4

EPOCH          = 2026-02-08T00:43:49.632384
MEAN_MOTION    = 15.50653425
ECCENTRICITY   = .0000868
INCLINATION    = 42.9983
RA_OF_ASC_NODE = 34.9321
ARG_OF_PERICENTER = 206.6138
MEAN_ANOMALY   = 153.4678

EPHEMERIS_TYPE = 0
CLASSIFICATION_TYPE = U
NORAD_CAT_ID   = 67351
ELEMENT_SET_NO = 999
REV_AT_EPOCH   = 428
BSTAR          = .17704E-2
MEAN_MOTION_DOT = .105203E-2
MEAN_MOTION_DDOT = 0

CCSDS_OMM_VERS = 2.0
CREATION_DATE  = 
ORIGINATOR     = 

OBJECT_NAME    = STARLINK-36479
OBJECT_ID      = 2026-003U
CENTER_NAME    = EARTH
REF_FRAME      = TEME
TIME_SYSTEM    = UTC
MEAN_ELEMENT_THEORY = SGP/SGP4

EPOCH          = 2026-02-08T00:43:20.608896
MEAN_MOTION    = 15.50644034
ECCENTRICITY   = .0001377
INCLINATION    = 42.9982
RA_OF_ASC_NODE = 34.9293
ARG_OF_PERICENTER = 200.0940
MEAN_ANOMALY   = 159.9866

EPHEMERIS_TYPE = 0
CLASSIFICATION_TYPE = U
NORAD_CAT_ID   = 67352
ELEMENT_SET_NO = 999
REV_AT_EPOCH   = 428
BSTAR          = .12205E-2
MEAN_MOTION_DOT = .72087E-3
MEAN_MOTION_DDOT = 0

CCSDS_OMM_VERS = 2.0
CREATION_DATE  = 
ORIGINATOR     = 

OBJECT_NAME    = STARLINK-36474
OBJECT_ID      = 2026-003V
CENTER_NAME    = EARTH
REF_FRAME      = TEME
TIME_SYSTEM    = UTC
MEAN_ELEMENT_THEORY = SGP/SGP4

EPOCH          = 2026-02-08T04:00:01.999584
MEAN_MOTION    = 15.37480389
ECCENTRICITY   = .000131
INCLINATION    = 43.0008
RA_OF_ASC_NODE = 34.2975
ARG_OF_PERICENTER = 258.5910
MEAN_ANOMALY   = 78.0231

EPHEMERIS_TYPE = 0
CLASSIFICATION_TYPE = U
NORAD_CAT_ID   = 67353
ELEMENT_SET_NO = 999
REV_AT_EPOCH   = 593
BSTAR          = -.62462E-1
MEAN_MOTION_DOT = -.2114355E-1
MEAN_MOTION_DDOT = 0

CCSDS_OMM_VERS = 2.0
CREATION_DATE  = 
ORIGINATOR     = 

OBJECT_NAME    = STARLINK-36448
OBJECT_ID      = 2026-003W
CENTER_NAME    = EARTH
REF_FRAME      = TEME
TIME_SYSTEM    = UTC
MEAN_ELEMENT_THEORY = SGP/SGP4

EPOCH          = 2026-02-08T04:00:01.999584
MEAN_MOTION    = 15.44126532
ECCENTRICITY   = .0001432
INCLINATION    = 42.9998
RA_OF_ASC_NODE = 34.1558
ARG_OF_PERICENTER = 272.4711
MEAN_ANOMALY   = 121.9486

EPHEMERIS_TYPE = 0
CLASSIFICATION_TYPE = U
NORAD_CAT_ID   = 67354
ELEMENT_SET_NO = 999
REV_AT_EPOCH   = 593
BSTAR          = -.49744E-1
MEAN_MOTION_DOT = -.2069693E-1
MEAN_MOTION_DDOT = 0

CCSDS_OMM_VERS = 2.0
CREATION_DATE  = 
ORIGINATOR     = 

OBJECT_NAME    = STARLINK-36477
OBJECT_ID      = 2026-003X
CENTER_NAME    = EARTH
REF_FRAME      = TEME
TIME_SYSTEM    = UTC
MEAN_ELEMENT_THEORY = SGP/SGP4

EPOCH          = 2026-02-08T04:00:01.999584
MEAN_MOTION    = 15.38530941
ECCENTRICITY   = .0001402
INCLINATION    = 43.0004
RA_OF_ASC_NODE = 34.2671
ARG_OF_PERICENTER = 258.9221
MEAN_ANOMALY   = 90.1818

EPHEMERIS_TYPE = 0
CLASSIFICATION_TYPE = U
NORAD_CAT_ID   = 67355
ELEMENT_SET_NO = 999
REV_AT_EPOCH   = 592
BSTAR          = -.60382E-1
MEAN_MOTION_DOT = -.211568E-1
MEAN_MOTION_DDOT = 0

CCSDS_OMM_VERS = 2.0
CREATION_DATE  = 
ORIGINATOR     = 

OBJECT_NAME    = STARLINK-36429
OBJECT_ID      = 2026-003Y
CENTER_NAME    = EARTH
REF_FRAME      = TEME
TIME_SYSTEM    = UTC
MEAN_ELEMENT_THEORY = SGP/SGP4

EPOCH          = 2026-02-08T04:00:01.999584
MEAN_MOTION    = 15.39182216
ECCENTRICITY   = .0001322
INCLINATION    = 42.9993
RA_OF_ASC_NODE = 34.2476
ARG_OF_PERICENTER = 263.8306
MEAN_ANOMALY   = 93.3287

EPHEMERIS_TYPE = 0
CLASSIFICATION_TYPE = U
NORAD_CAT_ID   = 67356
ELEMENT_SET_NO = 999
REV_AT_EPOCH   = 592
BSTAR          = -.58977E-1
MEAN_MOTION_DOT = -.2075885E-1
MEAN_MOTION_DDOT = 0

CCSDS_OMM_VERS = 2.0
CREATION_DATE  = 
ORIGINATOR     = 

OBJECT_NAME    = STARLINK-36456
OBJECT_ID      = 2026-003Z
CENTER_NAME    = EARTH
REF_FRAME      = TEME
TIME_SYSTEM    = UTC
MEAN_ELEMENT_THEORY = SGP/SGP4

EPOCH          = 2026-02-07T09:13:26.953536
MEAN_MOTION    = 15.50124252
ECCENTRICITY   = .00030823
INCLINATION    = 42.9974
RA_OF_ASC_NODE = 38.6823
ARG_OF_PERICENTER = 335.8136
MEAN_ANOMALY   = 24.2579

EPHEMERIS_TYPE = 0
CLASSIFICATION_TYPE = U
NORAD_CAT_ID   = 67357
ELEMENT_SET_NO = 999
REV_AT_EPOCH   = 418
BSTAR          = .22403344E-2
MEAN_MOTION_DOT = .131185E-2
MEAN_MOTION_DDOT = 0

